0 THORAD AGENA D DEB
1 05066U 70025JL  13282.42935662  .00000473  00000-0  37943-3 0  8345
2 05066 099.9137 090.2778 0069244 296.9531 126.2445 13.95387678193307
0 THORAD AGENA D DEB
1 05066U 70025JL  13286.44317744  .00000602  00000-0  47265-3 0  8360
2 05066 099.9135 094.5916 0069304 286.2354 129.3098 13.95390644193864
0 THORAD AGENA D DEB
1 05066U 70025JL  13287.96816492  .00000973  00000-0  74103-3 0  8375
2 05066 099.9137 096.2306 0069281 282.1695 229.9555 13.95393060194079
0 THORAD AGENA D DEB
1 05066U 70025JL  13289.44913980  .00000898  00000-0  68657-3 0  8384
2 05066 099.9139 097.8222 0069268 278.2465 109.4966 13.95395264194280
0 THORAD AGENA D DEB
1 05066U 70025JL  13291.04562083  .00001046  00000-0  79320-3 0  8393
2 05066 099.9142 099.5379 0069266 274.0214 209.2826 13.95397485194506
0 THORAD AGENA D DEB
1 05066U 70025JL  13292.04986308  .00001145  00000-0  86486-3 0  8407
2 05066 099.9143 100.6172 0069236 271.3211 214.0571 13.95398979194641
0 THORAD AGENA D DEB
1 05066U 70025JL  13293.39885782  .00001234  00000-0  92889-3 0  8414
2 05066 099.9145 102.0671 0069263 267.7741 150.6117 13.95402552194835
0 THORAD AGENA D DEB
1 05066U 70025JL  13294.40258034  .00001263  00000-0  95024-3 0  8428
2 05066 099.9146 103.1459 0069276 265.1024 152.7636 13.95405336194979
0 THORAD AGENA D DEB
1 05066U 70025JL  13295.40672722  .00001175  00000-0  88616-3 0  8435
2 05066 099.9146 104.2251 0069305 262.4478 157.0362 13.95408677195119
